STARLINK-2530           
1 48303U 21036AD  26036.26091700 -.00000387  00000+0 -70899-5 0  9999
2 48303  53.0565 237.7352 0001293  93.4395 266.6742 15.06398812263277
STARLINK-2524           
1 48304U 21036AE  26035.87382288 -.00002941  00000+0 -17862-3 0  9997
2 48304  53.0551 238.9310 0001530  81.4116 278.7047 15.06396753263221
STARLINK-2519           
1 48305U 21036AF  26036.25723966  .00000129  00000+0  27527-4 0  9997
2 48305  53.0553 237.7923 0001446  99.0236 261.0917 15.06398632263279
STARLINK-2523           
1 48306U 21036AG  26035.86646308  .00000500  00000+0  52506-4 0  9996
2 48306  53.0558 238.9667 0001627  96.4402 263.6773 15.06393544263220
STARLINK-2517           
1 48309U 21036AK  26035.72270418  .00000471  00000+0  50492-4 0  9998
2 48309  53.0550 239.6126 0000986  87.5410 272.5692 15.06393490263207
STARLINK-2536           
1 48310U 21036AL  26035.85170983 -.00002313  00000+0 -13647-3 0  9999
2 48310  53.0547 239.0320 0001309  92.6942 267.4197 15.06389008263227
STARLINK-2534           
1 48311U 21036AM  26035.84802584  .00000895  00000+0  79004-4 0  9999
2 48311  53.0554 239.0457 0001287 105.5674 254.5458 15.06384713263223
STARLINK-2061           
1 48312U 21036AN  26036.24240342  .00002485  00000+0  18560-3 0  9999
2 48312  53.0555 237.2778 0001520  94.8076 265.3086 15.06410654263284
STARLINK-2549           
1 48314U 21036AQ  26035.96966230  .00000489  00000+0  51744-4 0  9994
2 48314  53.0566 238.5031 0001688  96.0879 264.0302 15.06396880263230
STARLINK-2506           
1 48315U 21036AR  26035.83327043 -.00002334  00000+0 -13788-3 0  9992
2 48315  53.0560 239.1137 0001700 100.8280 259.2900 15.06394628263210
STARLINK-2507           
1 48316U 21036AS  26035.82958512  .00001286  00000+0  10520-3 0  9997
2 48316  53.0547 239.1315 0001338  91.2306 268.8837 15.06405686263215
STARLINK-2513           
1 48317U 21036AT  26035.82591228  .00000719  00000+0  67140-4 0  9996
2 48317  53.0549 239.1475 0001602  88.7371 271.3802 15.06394909263218
STARLINK-2509           
1 48318U 21036AU  26035.88394203  .00000970  00000+0  83996-4 0  9993
2 48318  53.0551 248.8877 0001372  91.7404 268.3742 15.06413994263080
STARLINK-2512           
1 48319U 21036AV  26036.01203382 -.00004181  00000+0 -26177-3 0  9994
2 48319  53.0551 248.3030 0001402  93.4042 266.7108 15.06421170263104
STARLINK-2029           
1 48320U 21036AW  26036.27467211 -.00001436  00000+0 -77515-4 0  9990
2 48320  53.0540 247.1299 0001458  81.1886 278.9268 15.06404946263147
STARLINK-2457           
1 48321U 21036AX  26036.27096690 -.00014037  00000+0 -92463-3 0  9999
2 48321  53.0552 247.1538 0001085  94.1984 265.9129 15.06427718263140
STARLINK-2515           
1 48323U 21036AZ  26035.73284196  .00000223  00000+0  33850-4 0  9997
2 48323  53.0519 249.5647 0001842  94.2207 265.8992 15.06402914263061
STARLINK-2495           
1 48325U 21036BB  26035.85816733  .00000739  00000+0  68482-4 0  9991
2 48325  53.0569 249.0046 0001372  88.3792 271.7355 15.06405727263083
STARLINK-2498           
1 48326U 21036BC  26035.98717555 -.00000180  00000+0  68054-5 0  9995
2 48326  53.0550 248.4250 0001697  86.1242 273.9941 15.06394195263104
STARLINK-2502           
1 48327U 21036BD  26035.85079192  .00000391  00000+0  45130-4 0  9992
2 48327  53.0545 249.0353 0001232  95.2784 264.8346 15.06404280263089
STARLINK-2504           
1 48328U 21036BE  26035.84710754  .00001114  00000+0  93709-4 0  9997
2 48328  53.0548 249.0527 0001450  92.7026 267.4129 15.06394738263083
STARLINK-2510           
1 48329U 21036BF  26035.90976348 -.00006461  00000+0 -41500-3 0  9991
2 48329  53.0544 248.7724 0001212  89.6209 270.4919 15.06420684263091
STARLINK-2501           
1 48330U 21036BG  26036.30419440 -.00006710  00000+0 -43232-3 0  9994
2 48330  53.0555 246.9998 0001859  79.8047 280.3152 15.06368602263153
STARLINK-2514           
1 48331U 21036BH  26035.90239344  .00002670  00000+0  19807-3 0  9993
2 48331  53.0543 248.8046 0001301  90.9562 269.1576 15.06403615263096
STARLINK-2518           
1 48333U 21036BK  26035.96137170  .00000420  00000+0  47083-4 0  9994
2 48333  53.0555 248.5410 0001502  90.3695 269.7466 15.06396442263102
STARLINK-2470           
1 48334U 21036BL  26035.89134943 -.00001552  00000+0 -85337-4 0  9995
2 48334  53.0529 248.8545 0001259  82.4373 277.6759 15.06386441263099
YAOGAN-34 01            
1 48340U 21037A   26036.27341200  .00000170  00000+0  43207-3 0  9994
2 48340  63.4039 125.2290 0076094 356.3237   3.7220 13.45441087234259
STARLINK-2613           
1 48353U 21038A   26036.29125385  .00000356  00000+0  42779-4 0  9995
2 48353  53.0551 147.0617 0002031 104.4253 255.6961 15.06399621262146
STARLINK-2674           
1 48354U 21038B   26036.28757856  .00004713  00000+0  33520-3 0  9993
2 48354  53.0539 147.0782 0001320  93.2597 266.8543 15.06383464262140
STARLINK-2635           
1 48355U 21038C   26036.28388742  .00000557  00000+0  56273-4 0  9991
2 48355  53.0543 147.0926 0001405 105.1858 254.9286 15.06395285262149
STARLINK-2637           
1 48356U 21038D   26035.74941012  .00011514  00000+0  79015-3 0  9990
2 48356  53.0538 149.4936 0001151 101.6498 258.4620 15.06421672262062
STARLINK-2636           
1 48357U 21038E   26036.31638385  .00082279  00000+0  53800-2 0  9990
2 48357  53.0537 147.3645 0001225  79.7068 280.4059 15.07072788262147
STARLINK-2624           
1 48358U 21038F   26036.27282366  .00006118  00000+0  42925-3 0  9995
2 48358  53.0548 147.1446 0001053  77.3008 282.8099 15.06397864262137
STARLINK-2628           
1 48359U 21038G   26035.60567500 -.00003919  00000+0 -24448-3 0  9996
2 48359  53.0554 150.1402 0001338  92.5577 267.5565 15.06384993262033
STARLINK-2622           
1 48360U 21038H   26036.26544979 -.00002214  00000+0 -12973-3 0  9993
2 48360  53.0557 147.1757 0001440 110.9601 249.1542 15.06406502262137
STARLINK-2591           
1 48361U 21038J   26036.32811163 -.00002784  00000+0 -16805-3 0  9993
2 48361  53.0539 146.8935 0001005  94.1528 265.9576 15.06415975262148
STARLINK-2578           
1 48362U 21038K   26036.29495560  .00003898  00000+0  28045-3 0  9993
2 48362  53.0542 147.1315 0001292  92.8279 267.2858 15.06399149262147
STARLINK-2611           
1 48364U 21038M   26035.53057539  .00009234  00000+0  32356-3 0  9991
2 48364  53.1602 141.8303 0001527  74.2576 285.8593 15.30193543262150
STARLINK-2608           
1 48365U 21038N   26035.51793073 -.00008412  00000+0 -27212-3 0  9994
2 48365  53.1586 141.9577 0002912 145.1212 214.9980 15.30200551262151
STARLINK-2643           
1 48367U 21038Q   26036.33335648  .00025358  00000+0  88831-3 0  9997
2 48367  53.1561 135.6532 0001098  73.5062 262.2231 15.29347686  5753
STARLINK-2623           
1 48368U 21038R   26036.23962637  .00213803  00000+0  13509-1 0  9993
2 48368  53.0565 137.5632 0001878  68.9155 291.2035 15.07571686262277
STARLINK-2621           
1 48370U 21038T   26036.25531760  .00000450  00000+0  49104-4 0  9992
2 48370  53.0539 137.2220 0001545 101.1373 258.9789 15.06390533262279
STARLINK-2589           
1 48371U 21038U   26035.58817164 -.00000891  00000+0 -40967-4 0  9992
2 48371  53.0547 140.2188 0001242  78.9111 281.2018 15.06392997262170
STARLINK-2609           
1 48373U 21038W   26036.33335648  .00140855  00000+0  48329-2 0  9991
2 48373  53.1517 135.7624 0001015  88.7560 286.8638 15.29144595  5795
STARLINK-2604           
1 48374U 21038X   26036.33335648  .01352639  00000+0  77594-1 0  9993
2 48374  53.0632 137.2090 0001186 102.7030 228.1617 15.09062567  5742
STARLINK-2603           
1 48375U 21038Y   26036.30323432  .00008313  00000+0  57624-3 0  9999
2 48375  53.0538 137.0095 0001218  93.2755 266.8373 15.06406222262284
STARLINK-2610           
1 48376U 21038Z   26036.29954621  .00001430  00000+0  11484-3 0  9995
2 48376  53.0543 137.0227 0001291  87.1015 273.0122 15.06403443262284
STARLINK-2499           
1 48377U 21038AA  26036.27323735  .00416804  00000+0  23916-1 0  9996
2 48377  53.0681 137.6025 0002472  66.8165 293.3086 15.10023618262272
STARLINK-2526           
1 48378U 21038AB  26035.62870425  .00003379  00000+0  24565-3 0  9990
2 48378  53.0537 140.0380 0001311  93.2373 266.8766 15.06399004262181
STARLINK-2612           
1 48379U 21038AC  26036.33335648  .01364788  00000+0  46780-1 0  9999
2 48379  53.1445 135.9530 0001598  89.1507 302.4907 15.27026496  5792
STARLINK-2614           
1 48380U 21038AD  26036.01282678  .00002578  00000+0  10165-3 0  9995
2 48380  53.1569 137.3451 0001285  87.0772 273.0375 15.29354520262255
STARLINK-2630           
1 48381U 21038AE  26036.28480578 -.00006935  00000+0 -44682-3 0  9998
2 48381  53.0542 137.0880 0002516 125.6473 234.4751 15.06421243262288
STARLINK-2585           
1 48382U 21038AF  26036.01573377  .00004861  00000+0  34501-3 0  9993
2 48382  53.0525 138.2988 0001044  95.0538 265.0570 15.06397302262242
STARLINK-2598           
1 48385U 21038AJ  26036.33335648  .00026384  00000+0  92393-3 0  9995
2 48385  53.1560 135.6021 0001340  93.6962 230.4239 15.29337100  5741
STARLINK-2606           
1 48386U 21038AK  26036.25761864 -.00002793  00000+0 -16869-3 0  9994
2 48386  53.0540 132.2192 0001667 109.7313 250.3856 15.06398617262344
STARLINK-2594           
1 48388U 21038AM  26036.28342359 -.00001938  00000+0 -11121-3 0  9999
2 48388  53.0562 132.0982 0001416  95.7315 264.3835 15.06404639262358
STARLINK-2586           
1 48390U 21038AP  26036.26792542  .00017013  00000+0  58492-3 0  9994
2 48390  53.1597 123.2520 0003864  80.6053 279.5385 15.30213765263692
STARLINK-2607           
1 48391U 21038AQ  26036.26113183  .00011578  00000+0  41290-3 0  9991
2 48391  53.1576 123.2625 0001125  59.2462 300.8650 15.29358287263690
STARLINK-2605           
1 48392U 21038AR  26036.24790254  .00020866  00000+0  71482-3 0  9996
2 48392  53.1590 123.2250 0001544  92.1343 267.9834 15.30191836263694
